13603,COSMOS 1413 [GLONASS],1982,673.32,-1.0,-,64.6,Inactive,0,MEO,Kazakhstan,Russia/USSR,Unknown,Unknown,Unknown,1 13603U 82100A   25067.97890331  .00000035  00000+0  00000+0 0  9990,2 13603  64.5988  82.9920 0007748  19.8161 141.1797  2.13866790331220,2.1386679,0.0007748,MEO
13606,COSMOS 1414 [GLONASS],1982,675.73,-1.0,-,64.53,Inactive,0,MEO,Kazakhstan,Russia/USSR,Unknown,Unknown,Unknown,1 13606U 82100D   25067.29747406  .00000031  00000+0  00000+0 0  9998,2 13606  64.5278  87.2483 0077690  31.0976 337.4898  2.13103815330043,2.13103815,0.007769,MEO
13607,COSMOS 1415 [GLONASS],1982,673.49,-1.0,-,64.58,Inactive,0,MEO,Kazakhstan,Russia/USSR,Unknown,Unknown,Unknown,1 13607U 82100E   25067.24647118  .00000030  00000+0  00000+0 0  9992,2 13607  64.5810  82.9741 0004712  19.2649  26.5169  2.13810221330981,2.13810221,0.0004712,MEO
14258,COSMOS 1490 [GLONASS],1983,675.73,-1.0,-,64.59,Inactive,0,MEO,Kazakhstan,Russia/USSR,Unknown,Unknown,Unknown,1 14258U 83084A   25067.64302351  .00000034  00000+0  00000+0 0  9992,2 14258  64.5913  88.7936 0014800  10.9594  92.4287  2.13103238323612,2.13103238,0.00148,MEO
14259,COSMOS 1491 [GLONASS],1983,668.42,-1.0,-,64.73,Inactive,0,MEO,Kazakhstan,Russia/USSR,Unknown,Unknown,Unknown,1 14259U 83084B   25068.00820413  .00000029  00000+0  00000+0 0  9992,2 14259  64.7267  74.4297 0021287 306.3302 217.8943  2.15434642326113,2.15434642,0.0021287,MEO
14260,COSMOS 1492 [GLONASS],1983,676.82,-1.0,-,64.55,Inactive,0,MEO,Kazakhstan,Russia/USSR,Unknown,Unknown,Unknown,1 14260U 83084C   25067.62511916  .00000034  00000+0  00000+0 0  9992,2 14260  64.5558  90.5001 0001706 336.7402 114.3673  2.12758973323098,2.12758973,0.0001706,MEO
14591,COSMOS 1520 [GLONASS],1983,675.73,-1.0,-,66.58,Inactive,0,MEO,Kazakhstan,Russia/USSR,Unknown,Unknown,Unknown,1 14591U 83127B   25067.69115978 -.00000093  00000+0  00000+0 0  9998,2 14591  66.5823 344.1965 0022484 173.6526  39.5850  2.13102482261286,2.13102482,0.0022484,MEO
14592,COSMOS 1521 [GLONASS],1983,673.41,-1.0,-,66.49,Inactive,0,MEO,Kazakhstan,Russia/USSR,Unknown,Unknown,Unknown,1 14592U 83127C   25067.34742469 -.00000088  00000+0  00000+0 0  9996,2 14592  66.4886 340.1513 0061123 192.9093 312.7860  2.13837140321635,2.1383714,0.0061123,MEO
14978,COSMOS 1555 [GLONASS],1984,675.73,-1.0,-,66.56,Inactive,0,MEO,Kazakhstan,Russia/USSR,Unknown,Unknown,Unknown,1 14978U 84047B   25066.37430772 -.00000090  00000+0  00000+0 0  9992,2 14978  66.5568 343.8683 0011444 177.6544  26.6677  2.13101989289557,2.13101989,0.0011444,MEO
14979,COSMOS 1556 [GLONASS],1984,676.34,-1.0,-,66.58,Inactive,0,MEO,Kazakhstan,Russia/USSR,Unknown,Unknown,Unknown,1 14979U 84047C   25065.37556924 -.00000085  00000+0  00000+0 0  9994,2 14979  66.5836 344.9862 0009149 196.4117 357.7439  2.12912174317136,2.12912174,0.0009149,MEO
