[
    {
        "OBJECT_NAME": "COSMOS 1413 [GLONASS]",
        "OBJECT_ID": "1982-100A",
        "EPOCH": "2025-03-08T23:29:37.245984",
        "MEAN_MOTION": 2.1386679,
        "ECCENTRICITY": 0.0007748,
        "INCLINATION": 64.5988,
        "RA_OF_ASC_NODE": 82.992,
        "ARG_OF_PERICENTER": 19.8161,
        "MEAN_ANOMALY": 141.1797,
        "EPHEMERIS_TYPE": 0,
        "CLASSIFICATION_TYPE": "U",
        "NORAD_CAT_ID": 13603,
        "ELEMENT_SET_NO": 999,
        "REV_AT_EPOCH": 33122,
        "BSTAR": 0,
        "MEAN_MOTION_DOT": 3.5e-07,
        "MEAN_MOTION_DDOT": 0
    },
    {
        "OBJECT_NAME": "COSMOS 1414 [GLONASS]",
        "OBJECT_ID": "1982-100D",
        "EPOCH": "2025-03-08T07:08:21.758784",
        "MEAN_MOTION": 2.13103815,
        "ECCENTRICITY": 0.007769,
        "INCLINATION": 64.5278,
        "RA_OF_ASC_NODE": 87.2483,
        "ARG_OF_PERICENTER": 31.0976,
        "MEAN_ANOMALY": 337.4898,
        "EPHEMERIS_TYPE": 0,
        "CLASSIFICATION_TYPE": "U",
        "NORAD_CAT_ID": 13606,
        "ELEMENT_SET_NO": 999,
        "REV_AT_EPOCH": 33004,
        "BSTAR": 0,
        "MEAN_MOTION_DOT": 3.1e-07,
        "MEAN_MOTION_DDOT": 0
    },
    {
        "OBJECT_NAME": "COSMOS 1415 [GLONASS]",
        "OBJECT_ID": "1982-100E",
        "EPOCH": "2025-03-08T05:54:55.109952",
        "MEAN_MOTION": 2.13810221,
        "ECCENTRICITY": 0.0004712,
        "INCLINATION": 64.581,
        "RA_OF_ASC_NODE": 82.9741,
        "ARG_OF_PERICENTER": 19.2649,
        "MEAN_ANOMALY": 26.5169,
        "EPHEMERIS_TYPE": 0,
        "CLASSIFICATION_TYPE": "U",
        "NORAD_CAT_ID": 13607,
        "ELEMENT_SET_NO": 999,
        "REV_AT_EPOCH": 33098,
        "BSTAR": 0,
        "MEAN_MOTION_DOT": 3e-07,
        "MEAN_MOTION_DDOT": 0
    },
    {
        "OBJECT_NAME": "COSMOS 1490 [GLONASS]",
        "OBJECT_ID": "1983-084A",
        "EPOCH": "2025-03-08T15:25:57.231264",
        "MEAN_MOTION": 2.13103238,
        "ECCENTRICITY": 0.00148,
        "INCLINATION": 64.5913,
        "RA_OF_ASC_NODE": 88.7936,
        "ARG_OF_PERICENTER": 10.9594,
        "MEAN_ANOMALY": 92.4287,
        "EPHEMERIS_TYPE": 0,
        "CLASSIFICATION_TYPE": "U",
        "NORAD_CAT_ID": 14258,
        "ELEMENT_SET_NO": 999,
        "REV_AT_EPOCH": 32361,
        "BSTAR": 0,
        "MEAN_MOTION_DOT": 3.4e-07,
        "MEAN_MOTION_DDOT": 0
    },
    {
        "OBJECT_NAME": "COSMOS 1491 [GLONASS]",
        "OBJECT_ID": "1983-084B",
        "EPOCH": "2025-03-09T00:11:48.836832",
        "MEAN_MOTION": 2.15434642,
        "ECCENTRICITY": 0.0021287,
        "INCLINATION": 64.7267,
        "RA_OF_ASC_NODE": 74.4297,
        "ARG_OF_PERICENTER": 306.3302,
        "MEAN_ANOMALY": 217.8943,
        "EPHEMERIS_TYPE": 0,
        "CLASSIFICATION_TYPE": "U",
        "NORAD_CAT_ID": 14259,
        "ELEMENT_SET_NO": 999,
        "REV_AT_EPOCH": 32611,
        "BSTAR": 0,
        "MEAN_MOTION_DOT": 2.9e-07,
        "MEAN_MOTION_DDOT": 0
    },
    {
        "OBJECT_NAME": "COSMOS 1492 [GLONASS]",
        "OBJECT_ID": "1983-084C",
        "EPOCH": "2025-03-08T15:00:10.295424",
        "MEAN_MOTION": 2.12758973,
        "ECCENTRICITY": 0.0001706,
        "INCLINATION": 64.5558,
        "RA_OF_ASC_NODE": 90.5001,
        "ARG_OF_PERICENTER": 336.7402,
        "MEAN_ANOMALY": 114.3673,
        "EPHEMERIS_TYPE": 0,
        "CLASSIFICATION_TYPE": "U",
        "NORAD_CAT_ID": 14260,
        "ELEMENT_SET_NO": 999,
        "REV_AT_EPOCH": 32309,
        "BSTAR": 0,
        "MEAN_MOTION_DOT": 3.4e-07,
        "MEAN_MOTION_DDOT": 0
    },
    {
        "OBJECT_NAME": "COSMOS 1520 [GLONASS]",
        "OBJECT_ID": "1983-127B",
        "EPOCH": "2025-03-08T16:35:16.204992",
        "MEAN_MOTION": 2.13102482,
        "ECCENTRICITY": 0.0022484,
        "INCLINATION": 66.5823,
        "RA_OF_ASC_NODE": 344.1965,
        "ARG_OF_PERICENTER": 173.6526,
        "MEAN_ANOMALY": 39.585,
        "EPHEMERIS_TYPE": 0,
        "CLASSIFICATION_TYPE": "U",
        "NORAD_CAT_ID": 14591,
        "ELEMENT_SET_NO": 999,
        "REV_AT_EPOCH": 26128,
        "BSTAR": 0,
        "MEAN_MOTION_DOT": -9.3e-07,
        "MEAN_MOTION_DDOT": 0
    },
    {
        "OBJECT_NAME": "COSMOS 1521 [GLONASS]",
        "OBJECT_ID": "1983-127C",
        "EPOCH": "2025-03-08T08:20:17.493216",
        "MEAN_MOTION": 2.1383714,
        "ECCENTRICITY": 0.0061123,
        "INCLINATION": 66.4886,
        "RA_OF_ASC_NODE": 340.1513,
        "ARG_OF_PERICENTER": 192.9093,
        "MEAN_ANOMALY": 312.786,
        "EPHEMERIS_TYPE": 0,
        "CLASSIFICATION_TYPE": "U",
        "NORAD_CAT_ID": 14592,
        "ELEMENT_SET_NO": 999,
        "REV_AT_EPOCH": 32163,
        "BSTAR": 0,
        "MEAN_MOTION_DOT": -8.8e-07,
        "MEAN_MOTION_DDOT": 0
    },
    {
        "OBJECT_NAME": "COSMOS 1555 [GLONASS]",
        "OBJECT_ID": "1984-047B",
        "EPOCH": "2025-03-07T08:59:00.187008",
        "MEAN_MOTION": 2.13101989,
        "ECCENTRICITY": 0.0011444,
        "INCLINATION": 66.5568,
        "RA_OF_ASC_NODE": 343.8683,
        "ARG_OF_PERICENTER": 177.6544,
        "MEAN_ANOMALY": 26.6677,
        "EPHEMERIS_TYPE": 0,
        "CLASSIFICATION_TYPE": "U",
        "NORAD_CAT_ID": 14978,
        "ELEMENT_SET_NO": 999,
        "REV_AT_EPOCH": 28955,
        "BSTAR": 0,
        "MEAN_MOTION_DOT": -9e-07,
        "MEAN_MOTION_DDOT": 0
    },
    {
        "OBJECT_NAME": "COSMOS 1556 [GLONASS]",
        "OBJECT_ID": "1984-047C",
        "EPOCH": "2025-03-06T09:00:49.182336",
        "MEAN_MOTION": 2.12912174,
        "ECCENTRICITY": 0.0009149,
        "INCLINATION": 66.5836,
        "RA_OF_ASC_NODE": 344.9862,
        "ARG_OF_PERICENTER": 196.4117,
        "MEAN_ANOMALY": 357.7439,
        "EPHEMERIS_TYPE": 0,
        "CLASSIFICATION_TYPE": "U",
        "NORAD_CAT_ID": 14979,
        "ELEMENT_SET_NO": 999,
        "REV_AT_EPOCH": 31713,
        "BSTAR": 0,
        "MEAN_MOTION_DOT": -8.5e-07,
        "MEAN_MOTION_DDOT": 0
    }
]